STARLINK-34260          
1 64334U 25124T   26068.53166186  .00026388  00000+0  96485-3 0  9993
2 64334  43.0023 122.8303 0002053 261.3098  98.7521 15.27585172 41754
KUIPER-00209            
1 67776U 26030N   26068.61786546  .00035298  00000+0  11963-2 0  9997
2 67776  51.8838 220.0775 0012191  59.1967 301.0215 15.30161950  5077
